NORAD_CAT_ID,EPOCH,MEAN_MOTION,ECCENTRICITY,INCLINATION,RA_OF_ASC_NODE,ARG_OF_PERICENTER,MEAN_ANOMALY,APOAPSIS,PERIAPSIS,BSTAR,COUNTRY_CODE,RCS_SIZE,NAME,LINE1,LINE2
4679,2025-08-09T04:26:25.778976,13.68336987,0.0016519,100.1655,20.1777,264.7366,274.4697,1017.747,993.352,0.00042683,US,SMALL,0 THORAD AGENA D DEB,1  4679U 70025BC  25221.18502059  .00000316  00000-0  42683-3 0  9998,2  4679 100.1655  20.1777 0016519 264.7366 274.4697 13.68336987748020
4683,2025-08-09T08:57:02.963808,13.34814732,0.0123611,100.4548,251.7569,106.6063,272.4169,1221.452,1035.867,0.0004318,US,SMALL,0 THORAD AGENA D DEB,1  4683U 70025BG  25221.37295097  .00000180  00000-0  43180-3 0  9997,2  4683 100.4548 251.7569 0123611 106.6063 272.4169 13.34814732686351
4688,2025-08-09T12:00:30.290976,13.5358688,0.0019538,100.0483,315.1428,321.1766,56.4335,1073.624,1044.562,0.00022683,US,SMALL,0 THORAD AGENA D DEB,1  4688U 70025BM  25221.50035059  .00000106  00000-0  22683-3 0  9990,2  4688 100.0483 315.1428 0019538 321.1766  56.4335 13.53586880726031
4689,2025-08-09T01:24:22.319424,13.55938978,0.0070692,99.3805,65.6619,87.8652,66.5868,1103.004,997.975,0.00033935,US,SMALL,0 THORAD AGENA D DEB,1  4689U 70025BN  25221.05859166  .00000200  00000-0  33935-3 0  9991,2  4689  99.3805  65.6619 0070692  87.8652  66.5868 13.55938978728572
4705,2025-08-09T07:45:51.447168,13.58655518,0.0042845,100.0163,341.0354,295.5986,87.4427,1072.37,1008.799,0.0006356,US,SMALL,0 THORAD AGENA D DEB,1  4705U 70025BT  25221.32351212  .00000420  00000-0  63560-3 0  9990,2  4705 100.0163 341.0354 0042845 295.5986  87.4427 13.58655518728428
4708,2025-08-09T02:29:46.355136,13.87978451,0.006553,100.053,281.5815,211.2339,167.3481,983.654,887.798,0.001245,US,SMALL,0 THORAD AGENA D DEB,1  4708U 70025BW  25221.10400874  .00001457  00000-0  12450-2 0  9990,2  4708 100.0530 281.5815 0065530 211.2339 167.3481 13.87978451752388
4710,2025-08-09T10:23:23.279712,13.55835498,0.0003958,100.1803,219.7045,215.7439,303.9727,1053.808,1047.927,0.0002337,US,SMALL,0 THORAD AGENA D DEB,1  4710U 70025BY  25221.43290833  .00000115  00000-0  23370-3 0  9995,2  4710 100.1803 219.7045 0003958 215.7439 303.9727 13.55835498731699
4715,2025-08-09T03:36:32.179680,13.82288728,0.0035011,99.1552,286.4289,220.7693,167.3079,981.459,930.105,3.147e-05,US,SMALL,0 THORAD AGENA D DEB,1  4715U 70025BZ  25221.15037245 -.00000009  00000-0  31470-4 0  9999,2  4715  99.1552 286.4289 0035011 220.7693 167.3079 13.82288728770813
4716,2025-08-09T03:08:31.744608,14.05056556,0.0007213,99.9551,337.5916,90.617,89.652,881.572,871.107,0.00098139,US,MEDIUM,0 THORAD AGENA D DEB,1  4716U 70025CA  25221.13092297  .00001530  00000-0  98139-3 0  9999,2  4716  99.9551 337.5916 0007213  90.6170  89.6520 14.05056556782158
4727,2025-08-09T08:08:49.954848,14.22176216,0.0464609,62.6878,131.8572,126.2267,238.268,1152.344,483.665,0.0011975,CIS,SMALL,0 COSMOS 375 DEB,1  4727U 70091Y   25221.33946707  .00008061  00000-0  11975-2 0  9998,2  4727  62.6878 131.8572 0464609 126.2267 238.2680 14.22176216708872
4733,2025-08-09T03:21:13.997376,14.64780923,0.0097554,99.8862,180.5159,143.5884,217.2001,746.614,608.948,0.00060922,US,SMALL,0 THORAD AGENA D DEB,1  4733U 70025CG  25221.13974534  .00003413  00000-0  60922-3 0  9992,2  4733  99.8862 180.5159 0097554 143.5884 217.2001 14.64780923880220
4735,2025-08-09T03:24:20.494368,14.96827942,0.0015258,99.6229,172.245,351.9205,8.1763,587.318,566.095,0.0040589,US,SMALL,0 THORAD AGENA D DEB,1  4735U 70025CJ  25221.14190387  .00046830  00000-0  40589-2 0  9997,2  4735  99.6229 172.2450 0015258 351.9205   8.1763 14.96827942849766
4736,2025-08-09T05:44:17.344032,14.02329627,0.0086734,100.0585,207.7052,330.194,29.4298,948.744,822.739,0.00089309,US,MEDIUM,0 THORAD AGENA D DEB,1  4736U 70025CK  25221.23908963  .00001363  00000-0  89309-3 0  9991,2  4736 100.0585 207.7052 0086734 330.1940  29.4298 14.02329627803294
4738,2025-08-09T03:45:57.773088,14.15104521,0.004988,100.084,178.9228,48.6717,311.8728,877.972,805.945,0.0015113,US,SMALL,0 THORAD AGENA D DEB,1  4738U 70025CM  25221.15691867  .00002913  00000-0  15113-2 0  9999,2  4738 100.0840 178.9228 0049880  48.6717 311.8728 14.15104521796596
4739,2025-08-09T00:21:47.689056,13.97214628,0.0002369,99.9632,59.4076,122.4776,32.2157,905.183,901.733,0.001262,US,SMALL,0 THORAD AGENA D DEB,1  4739U 70025CN  25221.01513529  .00001716  00000-0  12620-2 0  9993,2  4739  99.9632  59.4076 0002369 122.4776  32.2157 13.97214628770976
4744,2025-08-09T13:06:06.966144,13.56811003,0.0014668,100.1625,241.4883,289.9923,69.9634,1058.198,1036.415,0.00014774,US,MEDIUM,0 THORAD AGENA D DEB,1  4744U 70025CT  25221.54591396  .00000057  00000-0  14774-3 0  9995,2  4744 100.1625 241.4883 0014668 289.9923  69.9634 13.56811003733416
4745,2025-08-09T06:42:23.610816,13.97595485,0.0027967,100.0755,165.4434,101.2189,259.2116,922.496,881.775,0.001143,US,SMALL,0 THORAD AGENA D DEB,1  4745U 70025CU  25221.27943994  .00001564  00000-0  11430-2 0  9990,2  4745 100.0755 165.4434 0027967 101.2189 259.2116 13.97595485778149
4749,2025-08-09T11:53:53.623392,13.85143118,0.0016238,99.0158,63.2014,117.2573,243.0239,957.596,933.811,0.00093013,US,MEDIUM,0 THORAD AGENA D DEB,1  4749U 70025CX  25221.49575953  .00001013  00000-0  93013-3 0  9991,2  4749  99.0158  63.2014 0016238 117.2573 243.0239 13.85143118760630
4751,2025-08-09T03:35:00.397824,13.87015756,0.0006822,100.127,290.9609,152.0686,208.0835,944.102,934.118,0.0010573,US,SMALL,0 THORAD AGENA D DEB,1  4751U 70025CZ  25221.14931016  .00001187  00000-0  10573-2 0  9993,2  4751 100.1270 290.9609 0006822 152.0686 208.0835 13.87015756762690
4753,2025-08-09T13:38:08.179008,13.84061627,0.0006782,99.9775,328.2945,57.8368,302.3442,954.488,944.548,0.0011654,US,SMALL,0 THORAD AGENA D DEB,1  4753U 70025DB  25221.56815022  .00001248  00000-0  11654-2 0  9998,2  4753  99.9775 328.2945 0006782  57.8368 302.3442 13.84061627760199
4764,2025-08-09T08:31:58.643904,14.38376721,0.002489,99.51,249.9893,248.507,111.346,781.645,746.092,0.0034082,US,SMALL,0 THORAD AGENA D DEB,1  4764U 70025DJ  25221.35553986  .00010388  00000-0  34082-2 0  9990,2  4764  99.5100 249.9893 0024890 248.5070 111.3460 14.38376721782308
4768,2025-08-09T00:46:33.279168,13.71477465,0.0031142,100.2009,242.7097,89.8939,298.1588,1017.233,971.314,0.00037529,US,SMALL,0 THORAD AGENA D DEB,1  4768U 70025DN  25221.03232962  .00000289  00000-0  37529-3 0  9996,2  4768 100.2009 242.7097 0031142  89.8939 298.1588 13.71477465755617
4774,2025-08-09T07:22:38.754336,13.81468797,0.0043035,99.7172,341.3951,195.2504,194.3392,990.258,927.11,0.0010135,US,SMALL,0 THORAD AGENA D DEB,1  4774U 70025DU  25221.30739299  .00001039  00000-0  10135-2 0  9995,2  4774  99.7172 341.3951 0043035 195.2504 194.3392 13.81468797747526
4777,2025-08-09T03:56:16.316736,13.90517515,0.0008451,99.9411,308.0908,174.3662,216.1717,932.993,920.646,0.00072524,US,SMALL,0 THORAD AGENA D DEB,1  4777U 70025DX  25221.16407774  .00000852  00000-0  72524-3 0  9995,2  4777  99.9411 308.0908 0008451 174.3662 216.1717 13.90517515763711
4778,2025-08-09T02:54:45.363168,13.55510796,0.0036249,100.0064,276.9537,114.7999,275.9841,1078.988,1025.12,0.00027936,US,SMALL,0 THORAD AGENA D DEB,1  4778U 70025DY  25221.12135837  .00000149  00000-0  27936-3 0  9996,2  4778 100.0064 276.9537 0036249 114.7999 275.9841 13.55510796729750
4819,2025-08-09T03:18:19.017504,14.34354309,0.0035242,100.0893,183.1999,74.6933,285.8137,802.432,751.998,0.0024633,US,SMALL,0 THORAD AGENA D DEB,1  4819U 70025EA  25221.13772011  .00006925  00000-0  24633-2 0  9992,2  4819 100.0893 183.1999 0035242  74.6933 285.8137 14.34354309799817
4821,2025-08-09T01:34:01.913088,13.59076295,0.0008696,100.0561,253.1004,282.1289,107.5752,1045.503,1032.603,0.00034802,US,SMALL,0 THORAD AGENA D DEB,1  4821U 70025EC  25221.06529992  .00000209  00000-0  34802-3 0  9994,2  4821 100.0561 253.1004 0008696 282.1289 107.5752 13.59076295734307
4823,2025-08-07T08:39:17.662176,12.65934542,0.0919774,63.0231,248.2635,359.7078,0.3263,2113.826,683.268,0.00025524,CIS,SMALL,0 COSMOS 374 DEB,1  4823U 70089T   25219.36062109  .00000191  00000-0  25524-3 0  9999,2  4823  63.0231 248.2635 0919774 359.7078   0.3263 12.65934542515051
4842,2025-08-09T04:18:31.211424,14.08397973,0.0019183,99.9217,189.8492,40.8943,319.3658,878.755,850.967,0.00037821,US,MEDIUM,0 THORAD AGENA D DEB,1  4842U 70025EE  25221.17952791  .00000596  00000-0  37821-3 0  9999,2  4842  99.9217 189.8492 0019183  40.8943 319.3658 14.08397973779355
4857,2025-08-08T13:47:34.418688,14.27760883,0.0044364,99.7629,84.7765,269.565,90.0444,831.069,767.385,0.00072845,US,SMALL,0 THORAD AGENA D DEB,1  4857U 70025EM  25220.57470392  .00001764  00000-0  72845-3 0  9993,2  4857  99.7629  84.7765 0044364 269.5650  90.0444 14.27760883779380
4868,2025-08-09T03:07:55.491168,14.00657492,0.0054265,99.7479,267.9177,180.1439,179.9716,930.97,852.072,0.00093935,US,SMALL,0 THORAD AGENA D DEB,1  4868U 70025EY  25221.13050337  .00001366  00000-0  93935-3 0  9992,2  4868  99.7479 267.9177 0054265 180.1439 179.9716 14.00657492791993
4912,2025-08-09T11:50:31.330752,14.24356332,0.0039058,99.7198,304.4872,101.3196,259.2372,838.738,782.582,0.0011136,US,SMALL,0 THORAD AGENA D DEB,1  4912U 70025FJ  25221.49341818  .00002543  00000-0  11136-2 0  9998,2  4912  99.7198 304.4872 0039058 101.3196 259.2372 14.24356332810243
4919,2025-08-08T14:34:19.431840,14.18281566,0.0040519,100.077,274.6263,235.1422,124.5936,860.384,801.961,0.00076053,US,SMALL,0 THORAD AGENA D DEB,1  4919U 70025FR  25220.60716935  .00001523  00000-0  76053-3 0  9990,2  4919 100.0770 274.6263 0040519 235.1422 124.5936 14.18281566806105
4921,2025-08-09T06:30:57.259584,14.49386271,0.0040528,99.7188,341.3663,279.7499,79.9114,756.454,698.857,0.0016098,US,SMALL,0 THORAD AGENA D DEB,1  4921U 70025FT  25221.27149606  .00006166  00000-0  16098-2 0  9992,2  4921  99.7188 341.3663 0040528 279.7499  79.9114 14.49386271830717
